0 KOREASAT 5
1 29349U 06034A   24319.17549250 -.00000348  00000-0  00000-0 0  9998
2 29349   0.2761  92.9199 0002189 180.0381 317.0634  1.00269498 35501
0 CHINASAT 22A
1 29398U 06038A   24319.40294736  .00000110  00000-0  00000-0 0  9994
2 29398  10.4437  41.9041 0003480 146.3149 210.2485  1.00091098 66578
0 DIRECTV 9S
1 29494U 06043A   24319.38174277 -.00000103  00000-0  00000-0 0  9994
2 29494   0.9172  87.8532 0003209 149.0790 213.2876  1.00270885 45577
0 OPTUS D1
1 29495U 06043B   24319.58730028 -.00000173  00000-0  00000-0 0  9996
2 29495   1.5323  86.8606 0004000 148.1969 182.5890  1.00270027 66308
0 ARABSAT 4B
1 29526U 06051A   24319.01112110  .00000155  00000-0  00000-0 0  9993
2 29526   0.5005  85.5452 0007445 186.0450 172.2661  1.00270934 45447
0 WILDBLUE 1
1 29643U 06054A   24319.34841116 -.00000039  00000-0  00000-0 0  9999
2 29643   1.2991  88.0655 0002135 146.8350 193.3160  1.00271749 47979
0 MEASAT 3
1 29648U 06056A   24319.14882661 -.00000088  00000-0  00000-0 0  9998
2 29648   3.2270  83.4809 0005601 171.8081 211.5150  0.99751899 44601
0 ETS 8
1 29656U 06059A   24319.13382793 -.00000241  00000-0  00000-0 0  9991
2 29656  10.4610  43.8092 0009022 185.0482 205.1241  0.99008892 65291
0 BEIDOU 1D
1 30323U 07003A   24318.70605106 -.00000214  00000-0  00000-0 0  9992
2 30323   8.5177  62.9057 0055682 254.8440 108.3578  0.99155780 64953
0 INSAT 4B
1 30793U 07007A   24319.42896454 -.00000216  00000-0  00000-0 0  9997
2 30793   4.5946  80.4700 0017720 149.8754 321.5028  0.99079431 36277
0 SKYNET 5A
1 30794U 07007B   24319.45377244 -.00000261  00000-0  00000-0 0  9992
2 30794   3.8166  80.7064 0004327 167.1719  64.7556  1.00271562 64885
0 ANIK F3
1 31102U 07009A   24319.48799223  .00000009  00000-0  00000-0 0  9995
2 31102   0.0174 277.1704 0002176 322.6209 231.2937  1.00272508 40757
0 ASTRA 1L
1 31306U 07016A   24318.30188233  .00000131  00000-0  00000-0 0  9998
2 31306   0.0585 321.1013 0007155 305.7558 273.9586  1.00285895 39162
0 GALAXY 17
1 31307U 07016B   24319.41797767 -.00000196  00000-0  00000-0 0  9992
2 31307   1.4965  87.3081 0006136 172.3528 219.8589  1.00271409 63995
0 NIGCOMSAT 1
1 31395U 07018A   24318.87104465  .00000136  00000-0  00000-0 0  9990
2 31395  10.9118  37.2459 0005443 122.2926 248.3858  1.00278134 64243
0 CHINASAT 6B
1 31800U 07031A   24319.55813348 -.00000351  00000-0  00000-0 0  9999
2 31800   0.8988  88.8954 0004813 160.1249 121.3072  1.00267091 63616
0 DIRECTV 10
1 31862U 07032A   24319.34285685 -.00000093  00000-0  00000-0 0  9995
2 31862   0.0022 125.3392 0000791 112.5695 196.6785  1.00267107 39779
0 SPACEWAY 3
1 32018U 07036A   24319.55396538 -.00000225  00000-0  00000-0 0  9993
2 32018   2.4909  83.9557 0003236 118.4374 216.4751  0.99143011 40704
0 BSAT-3A
1 32019U 07036B   24318.74355008 -.00000341  00000-0  00000-0 0  9990
2 32019   0.0254 201.6038 0004805  27.6532 201.6298  1.00269307 44701
0 INSAT 4CR
1 32050U 07037A   24319.11021503 -.00000202  00000-0  00000-0 0  9994
2 32050   5.3835  76.6383 0001901 151.5057 171.1405  0.99218834 45411
0 OPTUS D2
1 32252U 07044A   24319.55952247 -.00000100  00000-0  00000-0 0  9999
2 32252   0.5683  89.4459 0006604 158.1662 168.0914  1.00271244 62752
0 INTELSAT 11 (PAS 11)
1 32253U 07044B   24318.28250882 -.00000257  00000-0  00000-0 0  9998
2 32253   2.0479  85.8520 0004539 163.7159 222.0439  1.00280055 62674
0 WGS F1 (USA 195)
1 32258U 07046A   24318.48729931 -.00000259  00000-0  00000+0 0  9994
2 32258   0.1249  90.8534 0001335 342.5685 112.5918  1.00242035 62497
0 STAR ONE C1
1 32293U 07056A   24319.15604806 -.00000198  00000-0  00000-0 0  9995
2 32293   3.2480  82.8944 0015353 173.0291 203.4812  0.99067502  9640
0 SKYNET 5B
1 32294U 07056B   24319.15386569  .00000152  00000-0  00000-0 0  9998
2 32294   3.7684  80.3717 0003750 151.6698 262.1691  1.00271834 62389
0 ASTRA 4A (SIRIUS 4)
1 32299U 07057A   24319.15049368  .00000043  00000-0  00000-0 0  9996
2 32299   0.0517  75.8034 0002949 151.1010 245.8620  1.00272122 45834
0 RADUGA 1M-1
1 32373U 07058A   24319.11021503 -.00000199  00000-0  00000-0 0  9990
2 32373   8.8729  57.1353 0002234 171.3915 162.2660  0.99396351 46622
0 RASCOM 1
1 32387U 07063A   24318.27399453 -.00000054  00000-0  00000-0 0  9999
2 32387  10.2518  46.3705 0009222 110.1887 269.8977  0.99062143 61726
0 HORIZONS 2
1 32388U 07063B   24318.49086743 -.00000242  00000-0  00000-0 0  9998
2 32388   1.0962  87.7676 0002246 157.1614 271.0830  1.00268345 61999
0 THURAYA 3
1 32404U 08001A   24319.16229976 -.00000294  00000-0  00000-0 0  9999
2 32404   5.0612  33.5585 0002651 207.8866 329.2494  1.00269746 61677
0 EXPRESS AM-33
1 32478U 08003A   24319.59285743 -.00000274  00000-0  00000-0 0  9991
2 32478   3.3110  82.4621 0011470 153.9421 169.9099  1.00302096 47921
0 THOR 5
1 32487U 08006A   24319.15049368  .00000001  00000-0  00000-0 0  9994
2 32487   0.0154 258.4817 0002556 340.5471 228.1651  1.00270244 61500
0 WINDS (KIZUNA)
1 32500U 08007A   24319.08010418  .00000090  00000-0  00000-0 0  9995
2 32500   7.1194  68.5142 0002998 123.6560 264.2220  1.00220580 61082
0 AMC-14
1 32708U 08011A   24318.86056432  .00000070  00000-0  00000-0 0  9999
2 32708  23.2849  27.5033 0034988 353.1584   0.0694  1.00276060 62347
0 DIRECTV 11
1 32729U 08013A   24318.55733102 -.00000116  00000-0  00000-0 0  9998
2 32729   0.0052 241.0586 0000553 331.8774 301.6982  1.00274181 39773
0 ICO G-1
1 32763U 08016A   24319.24563316 -.00000163  00000-0  00000-0 0  9996
2 32763   5.1365  35.9671 0002214 190.8723 182.5837  1.00270630 60732
0 VINASAT 1
1 32767U 08018A   24319.59285743 -.00000319  00000-0  00000-0 0  9998
2 32767   0.0150 339.8511 0002292 272.3963 147.3239  1.00272743 60775
0 STAR ONE C2
1 32768U 08018B   24319.17254466 -.00000267  00000-0  00000-0 0  9993
2 32768   0.0409  33.8222 0002857 204.0118 173.0734  1.00270107 60839
0 AMOS 3
1 32794U 08022A   24319.15049368 -.00000025  00000-0  00000-0 0  9990
2 32794   0.0124 259.4559 0002856 326.8784 237.4957  1.00270571 76522
0 GALAXY 18
1 32951U 08024A   24318.98149487  .00000035  00000-0  00000-0 0  9990
2 32951   0.0080 325.2548 0003404 277.1125  41.5749  1.00272212 40039
0 CHINASAT 9
1 33051U 08028A   24319.58105073 -.00000238  00000-0  00000-0 0  9992
2 33051   0.0148 285.7915 0004479 324.2097 105.5468  1.00270050 60229
0 SKYNET 5C
1 33055U 08030A   24319.43135729 -.00000129  00000-0  00000-0 0  9993
2 33055   2.2939  83.7351 0004510 162.1647 305.6134  1.00270374 60144
0 TURKSAT 3A
1 33056U 08030B   24319.08575141  .00000156  00000-0  00000-0 0  9990
2 33056   0.0556 100.3164 0003961 121.3689 264.8969  1.00273757 46544
0 COSMOS 2440
1 33108U 08033A   24318.80605806 -.00000074  00000-0  00000-0 0  9992
2 33108   9.4664  45.5045 0007265 178.5388 193.1745  1.00260312 59974
0 INTELSAT 25(PROTOSTAR 1)
1 33153U 08034A   24319.16646497 -.00000213  00000-0  00000-0 0  9999
2 33153   1.2055  87.4579 0003287 153.3678 201.3916  1.00269836 59879
0 BADR 6
1 33154U 08034B   24318.58217885  .00000148  00000-0  00000-0 0  9996
2 33154   1.3446  85.6618 0003266 341.3129 221.8968  1.00187270 59938
0 ECHOSTAR 11
1 33207U 08035A   24319.19771571 -.00000047  00000-0  00000-0 0  9990
2 33207   0.0163 325.3469 0002861 253.7739 155.8759  1.00270378 45391
0 SUPERBIRD 7
1 33274U 08038A   24319.58730028 -.00000241  00000-0  00000-0 0  9998
2 33274   0.8589  88.6992 0001910 164.6892 156.1792  1.00271094 99913
0 AMC-21
1 33275U 08038B   24319.44493950  .00000046  00000-0  00000-0 0  9996
2 33275   1.4452  87.7405 0003432 154.1022 207.4894  1.00271554 59683
0 INMARSAT 4-F3
1 33278U 08039A   24318.84350354 -.00000132  00000-0  00000-0 0  9990
2 33278   3.8198  28.5766 0002954 213.7571  16.7880  1.00273963 40728
0 NIMIQ 4
1 33373U 08044A   24318.91813384 -.00000210  00000-0  00000-0 0  9994
2 33373   0.0249 286.5079 0001848 316.2682  59.2761  1.00267206 59167
0 GALAXY 19
1 33376U 08045A   24319.43382791 -.00000129  00000-0  00000-0 0  9998
2 33376   0.0079 336.4832 0002833 251.0962 245.6460  1.00270854 59097
0 VENESAT-1
1 33414U 08055A   24319.39285416  .00000052  00000-0  00000-0 0  9997
2 33414   4.2629  79.9420 0066005 177.3420 190.0636  0.99267898 58705
0 ASTRA 1M
1 33436U 08057A   24319.00973102  .00000130  00000-0  00000-0 0  9994
2 33436   0.0758  86.1844 0004550 111.2901 238.8349  1.00271190 39911
0 CIEL-2
1 33453U 08063A   24319.15049368 -.00000142  00000-0  00000-0 0  9998
2 33453   1.2670  88.5560 0001575 191.3201 191.6191  0.99025034 58286
0 EUTE HOT BIRD 13C (HB 9)
1 33459U 08065A   24319.21576028 -.00000090  00000-0  00000-0 0  9993
2 33459   1.4504  85.8051 0006326 158.3483 234.8585  1.00270859 41536
0 FENGYUN 2E
1 33463U 08066A   24319.47584326 -.00000282  00000-0  00000-0 0  9990
2 33463   7.9322  59.3645 0001268 129.4603 187.1981  0.99123397 58256
0 EXPRESS AM-44
1 33595U 09007A   24319.16854778 -.00000078  00000-0  00000-0 0  9992
2 33595   1.9635  85.4773 0004650 152.2322 225.7607  1.00270844 46473
0 EXPRESS MD1
1 33596U 09007B   24319.40920274  .00000079  00000-0  00000-0 0  9995
2 33596   8.8615  58.1443 0007435 335.9715  37.9807  0.99110350 57333
0 NSS 9
1 33749U 09008A   24319.57341049  .00000081  00000-0  00000-0 0  9994
2 33749   0.0176 333.6847 0002307 258.2342 211.7530  1.00270039 57715
0 TELSTAR 11N
1 34111U 09009A   24318.48729931 -.00000241  00000-0  00000+0 0  9996
2 34111   0.0180 292.7132 0002724 285.5566 332.7004  1.00269806 57596
0 RADUGA 1-8
1 34264U 09010A   24318.62341110 -.00000345  00000-0  00000+0 0  9997
2 34264  10.9702  46.9636 0010398  19.7027 335.6667  0.99825905 57376
0 WGS F2 (USA 204)
1 34713U 09017A   24319.22966265  .00000078  00000-0  00000-0 0  9997
2 34713   0.0133 316.6930 0000430 266.4247 330.8801  1.00269330 39800
0 SES 7 (PROTOSTAR 2)
1 34941U 09027A   24319.56368807 -.00000336  00000-0  00000-0 0  9994
2 34941   0.0713  80.0553 0002556 160.7331 124.5703  1.00270202 56810
0 MEASAT 3A
1 35362U 09032A   24318.51993766 -.00000101  00000-0  00000-0 0  9990
2 35362   0.0405  93.0712 0003392 172.2471 134.9559  1.00270512  2201
